[{"OBJECT_NAME":"STARLINK-1478","OBJECT_ID":"2020-038AB","EPOCH":"2026-03-09T15:11:59.368128","MEAN_MOTION":15.55038308,"ECCENTRICITY":0.0003392,"INCLINATION":53.0519,"RA_OF_ASC_NODE":198.1629,"ARG_OF_PERICENTER":240.0104,"MEAN_ANOMALY":120.057,"EPHEMERIS_TYPE":0,"CLASSIFICATION_TYPE":"U","NORAD_CAT_ID":45755,"ELEMENT_SET_NO":999,"REV_AT_EPOCH":31672,"BSTAR":0.0016531,"MEAN_MOTION_DOT":0.00114162,"MEAN_MOTION_DDOT":0},{"OBJECT_NAME":"STARLINK-36514","OBJECT_ID":"2026-020AA","EPOCH":"2026-03-09T22:00:01.999584","MEAN_MOTION":15.6241414,"ECCENTRICITY":0.00012447,"INCLINATION":42.9994,"RA_OF_ASC_NODE":140.2417,"ARG_OF_PERICENTER":280.6067,"MEAN_ANOMALY":239.0507,"EPHEMERIS_TYPE":0,"CLASSIFICATION_TYPE":"U","NORAD_CAT_ID":67641,"ELEMENT_SET_NO":999,"REV_AT_EPOCH":604,"BSTAR":-0.024506103,"MEAN_MOTION_DOT":-0.01968149,"MEAN_MOTION_DDOT":0}]
